CCSDS_OMM_VERS = 2.0
CREATION_DATE  = 
ORIGINATOR     = 

OBJECT_NAME    = SL-16 R/B
OBJECT_ID      = 1993-016B
CENTER_NAME    = EARTH
REF_FRAME      = TEME
TIME_SYSTEM    = UTC
MEAN_ELEMENT_THEORY = SGP/SGP4

EPOCH          = 2026-02-27T22:56:21.596064
MEAN_MOTION    = 14.15302515
ECCENTRICITY   = .00111256
INCLINATION    = 71.0050
RA_OF_ASC_NODE = 235.6258
ARG_OF_PERICENTER = 327.8319
MEAN_ANOMALY   = 32.2124

EPHEMERIS_TYPE = 0
CLASSIFICATION_TYPE = U
NORAD_CAT_ID   = 22566
ELEMENT_SET_NO = 999
REV_AT_EPOCH   = 70079
BSTAR          = .18263411E-3
MEAN_MOTION_DOT = .308E-5
MEAN_MOTION_DDOT = 0

CCSDS_OMM_VERS = 2.0
CREATION_DATE  = 
ORIGINATOR     = 

OBJECT_NAME    = COSMOS 2242
OBJECT_ID      = 1993-024A
CENTER_NAME    = EARTH
REF_FRAME      = TEME
TIME_SYSTEM    = UTC
MEAN_ELEMENT_THEORY = SGP/SGP4

EPOCH          = 2026-02-27T19:22:08.148864
MEAN_MOTION    = 14.96501941
ECCENTRICITY   = .00159487
INCLINATION    = 82.5163
RA_OF_ASC_NODE = 276.1713
ARG_OF_PERICENTER = 344.0426
MEAN_ANOMALY   = 16.0291

EPHEMERIS_TYPE = 0
CLASSIFICATION_TYPE = U
NORAD_CAT_ID   = 22626
ELEMENT_SET_NO = 999
REV_AT_EPOCH   = 77891
BSTAR          = .16395265E-3
MEAN_MOTION_DOT = .1892E-4
MEAN_MOTION_DDOT = 0

CCSDS_OMM_VERS = 2.0
CREATION_DATE  = 
ORIGINATOR     = 

OBJECT_NAME    = SL-16 R/B
OBJECT_ID      = 1993-059B
CENTER_NAME    = EARTH
REF_FRAME      = TEME
TIME_SYSTEM    = UTC
MEAN_ELEMENT_THEORY = SGP/SGP4

EPOCH          = 2026-02-27T22:45:45.226368
MEAN_MOTION    = 14.17230788
ECCENTRICITY   = .00189196
INCLINATION    = 70.9910
RA_OF_ASC_NODE = 31.6675
ARG_OF_PERICENTER = 230.0523
MEAN_ANOMALY   = 129.8939

EPHEMERIS_TYPE = 0
CLASSIFICATION_TYPE = U
NORAD_CAT_ID   = 22803
ELEMENT_SET_NO = 999
REV_AT_EPOCH   = 67815
BSTAR          = .13988366E-3
MEAN_MOTION_DOT = .235E-5
MEAN_MOTION_DDOT = 0

CCSDS_OMM_VERS = 2.0
CREATION_DATE  = 
ORIGINATOR     = 

OBJECT_NAME    = ARIANE 40 R/B
OBJECT_ID      = 1993-061H
CENTER_NAME    = EARTH
REF_FRAME      = TEME
TIME_SYSTEM    = UTC
MEAN_ELEMENT_THEORY = SGP/SGP4

EPOCH          = 2026-02-27T10:24:11.984256
MEAN_MOTION    = 14.32854737
ECCENTRICITY   = .00097666
INCLINATION    = 98.4939
RA_OF_ASC_NODE = 127.5225
ARG_OF_PERICENTER = 318.9748
MEAN_ANOMALY   = 41.0701

EPHEMERIS_TYPE = 0
CLASSIFICATION_TYPE = U
NORAD_CAT_ID   = 22830
ELEMENT_SET_NO = 999
REV_AT_EPOCH   = 69263
BSTAR          = .95175745E-4
MEAN_MOTION_DOT = .217E-5
MEAN_MOTION_DDOT = 0

CCSDS_OMM_VERS = 2.0
CREATION_DATE  = 
ORIGINATOR     = 

OBJECT_NAME    = COSMOS 2278
OBJECT_ID      = 1994-023A
CENTER_NAME    = EARTH
REF_FRAME      = TEME
TIME_SYSTEM    = UTC
MEAN_ELEMENT_THEORY = SGP/SGP4

EPOCH          = 2026-02-27T20:06:29.309472
MEAN_MOTION    = 14.14372436
ECCENTRICITY   = .00074979
INCLINATION    = 71.0534
RA_OF_ASC_NODE = 195.7070
ARG_OF_PERICENTER = 33.2900
MEAN_ANOMALY   = 326.8693

EPHEMERIS_TYPE = 0
CLASSIFICATION_TYPE = U
NORAD_CAT_ID   = 23087
ELEMENT_SET_NO = 999
REV_AT_EPOCH   = 64341
BSTAR          = .22511733E-3
MEAN_MOTION_DOT = .384E-5
MEAN_MOTION_DDOT = 0

CCSDS_OMM_VERS = 2.0
CREATION_DATE  = 
ORIGINATOR     = 

OBJECT_NAME    = SL-16 R/B
OBJECT_ID      = 1994-023B
CENTER_NAME    = EARTH
REF_FRAME      = TEME
TIME_SYSTEM    = UTC
MEAN_ELEMENT_THEORY = SGP/SGP4

EPOCH          = 2026-02-27T12:50:48.941952
MEAN_MOTION    = 14.15013257
ECCENTRICITY   = .00054201
INCLINATION    = 70.9988
RA_OF_ASC_NODE = 92.2142
ARG_OF_PERICENTER = 295.4375
MEAN_ANOMALY   = 64.6186

EPHEMERIS_TYPE = 0
CLASSIFICATION_TYPE = U
NORAD_CAT_ID   = 23088
ELEMENT_SET_NO = 999
REV_AT_EPOCH   = 64465
BSTAR          = .34551375E-4
MEAN_MOTION_DOT = .19E-6
MEAN_MOTION_DDOT = 0

CCSDS_OMM_VERS = 2.0
CREATION_DATE  = 
ORIGINATOR     = 

OBJECT_NAME    = SL-16 R/B
OBJECT_ID      = 1994-074B
CENTER_NAME    = EARTH
REF_FRAME      = TEME
TIME_SYSTEM    = UTC
MEAN_ELEMENT_THEORY = SGP/SGP4

EPOCH          = 2026-02-27T20:55:34.900608
MEAN_MOTION    = 14.79394516
ECCENTRICITY   = .00051928
INCLINATION    = 97.7122
RA_OF_ASC_NODE = 90.0867
ARG_OF_PERICENTER = 248.7274
MEAN_ANOMALY   = 284.4629

EPHEMERIS_TYPE = 0
CLASSIFICATION_TYPE = U
NORAD_CAT_ID   = 23343
ELEMENT_SET_NO = 999
REV_AT_EPOCH   = 68579
BSTAR          = .75852262E-4
MEAN_MOTION_DOT = .516E-5
MEAN_MOTION_DDOT = 0

CCSDS_OMM_VERS = 2.0
CREATION_DATE  = 
ORIGINATOR     = 

OBJECT_NAME    = SL-16 R/B
OBJECT_ID      = 1994-077B
CENTER_NAME    = EARTH
REF_FRAME      = TEME
TIME_SYSTEM    = UTC
MEAN_ELEMENT_THEORY = SGP/SGP4

EPOCH          = 2026-02-27T22:40:34.122432
MEAN_MOTION    = 14.15563460
ECCENTRICITY   = .00035941
INCLINATION    = 70.9849
RA_OF_ASC_NODE = 12.9883
ARG_OF_PERICENTER = 224.3690
MEAN_ANOMALY   = 135.7146

EPHEMERIS_TYPE = 0
CLASSIFICATION_TYPE = U
NORAD_CAT_ID   = 23405
ELEMENT_SET_NO = 999
REV_AT_EPOCH   = 61485
BSTAR          = -.81134148E-4
MEAN_MOTION_DOT = -.207E-5
MEAN_MOTION_DDOT = 0

CCSDS_OMM_VERS = 2.0
CREATION_DATE  = 
ORIGINATOR     = 

OBJECT_NAME    = ARIANE 40+ R/B
OBJECT_ID      = 1995-021B
CENTER_NAME    = EARTH
REF_FRAME      = TEME
TIME_SYSTEM    = UTC
MEAN_ELEMENT_THEORY = SGP/SGP4

EPOCH          = 2026-02-27T10:51:08.437536
MEAN_MOTION    = 14.39763900
ECCENTRICITY   = .00071849
INCLINATION    = 98.4519
RA_OF_ASC_NODE = 130.0724
ARG_OF_PERICENTER = 163.8752
MEAN_ANOMALY   = 206.7087

EPHEMERIS_TYPE = 0
CLASSIFICATION_TYPE = U
NORAD_CAT_ID   = 23561
ELEMENT_SET_NO = 999
REV_AT_EPOCH   = 61777
BSTAR          = .11098508E-3
MEAN_MOTION_DOT = .304E-5
MEAN_MOTION_DDOT = 0

CCSDS_OMM_VERS = 2.0
CREATION_DATE  = 
ORIGINATOR     = 

OBJECT_NAME    = SL-16 R/B
OBJECT_ID      = 1995-058B
CENTER_NAME    = EARTH
REF_FRAME      = TEME
TIME_SYSTEM    = UTC
MEAN_ELEMENT_THEORY = SGP/SGP4

EPOCH          = 2026-02-27T19:26:25.122336
MEAN_MOTION    = 14.15493135
ECCENTRICITY   = .00111036
INCLINATION    = 71.0208
RA_OF_ASC_NODE = 200.9953
ARG_OF_PERICENTER = 143.2313
MEAN_ANOMALY   = 216.9574

EPHEMERIS_TYPE = 0
CLASSIFICATION_TYPE = U
NORAD_CAT_ID   = 23705
ELEMENT_SET_NO = 999
REV_AT_EPOCH   = 56645
BSTAR          = -.75675011E-4
MEAN_MOTION_DOT = -.195E-5
MEAN_MOTION_DDOT = 0

CCSDS_OMM_VERS = 2.0
CREATION_DATE  = 
ORIGINATOR     = 

OBJECT_NAME    = SL-16 R/B
OBJECT_ID      = 1996-051B
CENTER_NAME    = EARTH
REF_FRAME      = TEME
TIME_SYSTEM    = UTC
MEAN_ELEMENT_THEORY = SGP/SGP4

EPOCH          = 2026-02-27T19:49:34.245120
MEAN_MOTION    = 14.12412723
ECCENTRICITY   = .00159662
INCLINATION    = 70.7590
RA_OF_ASC_NODE = 196.1147
ARG_OF_PERICENTER = 162.4066
MEAN_ANOMALY   = 197.7610

EPHEMERIS_TYPE = 0
CLASSIFICATION_TYPE = U
NORAD_CAT_ID   = 24298
ELEMENT_SET_NO = 999
REV_AT_EPOCH   = 52025
BSTAR          = .7083301E-4
MEAN_MOTION_DOT = .82E-6
MEAN_MOTION_DDOT = 0

CCSDS_OMM_VERS = 2.0
CREATION_DATE  = 
ORIGINATOR     = 

OBJECT_NAME    = ORBVIEW 2 (SEASTAR)
OBJECT_ID      = 1997-037A
CENTER_NAME    = EARTH
REF_FRAME      = TEME
TIME_SYSTEM    = UTC
MEAN_ELEMENT_THEORY = SGP/SGP4

EPOCH          = 2026-02-27T22:31:16.286880
MEAN_MOTION    = 14.35485931
ECCENTRICITY   = .00032187
INCLINATION    = 98.8551
RA_OF_ASC_NODE = 222.9928
ARG_OF_PERICENTER = 91.7489
MEAN_ANOMALY   = 268.4064

EPHEMERIS_TYPE = 0
CLASSIFICATION_TYPE = U
NORAD_CAT_ID   = 24883
ELEMENT_SET_NO = 999
REV_AT_EPOCH   = 50707
BSTAR          = .12489881E-3
MEAN_MOTION_DOT = .313E-5
MEAN_MOTION_DDOT = 0

