SL-16 R/B               
1 22566U 93016B   26058.95580551  .00000308  00000+0  18263-3 0  9992
2 22566  71.0050 235.6258 0011125 327.8319  32.2124 14.15302515700794
COSMOS 2242             
1 22626U 93024A   26058.80703876  .00001892  00000+0  16395-3 0  9992
2 22626  82.5163 276.1713 0015948 344.0426  16.0291 14.96501941778913
SL-16 R/B               
1 22803U 93059B   26058.94844012  .00000235  00000+0  13988-3 0  9995
2 22803  70.9910  31.6675 0018919 230.0523 129.8939 14.17230788678153
ARIANE 40 R/B           
1 22830U 93061H   26058.43347204  .00000217  00000+0  95176-4 0  9993
2 22830  98.4939 127.5225 0009766 318.9748  41.0701 14.32854737692634
COSMOS 2278             
1 23087U 94023A   26058.83783923  .00000384  00000+0  22512-3 0  9991
2 23087  71.0534 195.7070 0007497  33.2900 326.8693 14.14372436643415
SL-16 R/B               
1 23088U 94023B   26058.53528868  .00000019  00000+0  34551-4 0  9996
2 23088  70.9988  92.2142 0005420 295.4375  64.6186 14.15013257644655
SL-16 R/B               
1 23343U 94074B   26058.87193172  .00000516  00000+0  75852-4 0  9990
2 23343  97.7122  90.0867 0005192 248.7274 284.4629 14.79394516685795
SL-16 R/B               
1 23405U 94077B   26058.94483938 -.00000207  00000+0 -81134-4 0  9991
2 23405  70.9849  12.9883 0003594 224.3690 135.7146 14.15563460614857
ARIANE 40+ R/B          
1 23561U 95021B   26058.45218099  .00000304  00000+0  11099-3 0  9992
2 23561  98.4519 130.0724 0007184 163.8752 206.7087 14.39763900617774
SL-16 R/B               
1 23705U 95058B   26058.81001299 -.00000195  00000+0 -75675-4 0  9995
2 23705  71.0208 200.9953 0011103 143.2313 216.9574 14.15493135566454
SL-16 R/B               
1 24298U 96051B   26058.82609080  .00000082  00000+0  70833-4 0  9994
2 24298  70.7590 196.1147 0015966 162.4066 197.7610 14.12412723520258
ORBVIEW 2 (SEASTAR)     
1 24883U 97037A   26058.93838295  .00000313  00000+0  12490-3 0  9994
2 24883  98.8551 222.9928 0003218  91.7489 268.4064 14.35485931507071
